SPACEMOBILE-006         
1 67232U 25309A   26126.31245188  .00003037  00000+0  16133-3 0  9997
2 67232  52.9948 163.3938 0011280  10.4586 349.6640 15.18334070 20239
